TITAN 3C TRANSTAGE R/B  
1 03692U 69013B   26061.82132775 -.00000239  00000+0  00000+0 0  9992
2 03692   1.0298  77.2984 0165719  36.0736 108.9112  0.97536017 41288
TITAN 3C TRANSTAGE R/B  
1 03956U 69046F   26063.50980753 -.00000672  00000+0  00000+0 0  9996
2 03956  17.1418  36.2871 8032075 268.4802   0.8357  0.46190181 20622
ATS 5                   
1 04068U 69069A   26061.73239175 -.00000006  00000+0  00000+0 0  9995
2 04068   0.2916 214.6020 0006224  66.7611 223.0466  0.99486965 45260
ATLAS CENTAUR R/B       
1 04069U 69069B   26060.73139886 -.00000400  00000+0  00000+0 0  9991
2 04069  17.6140 311.9376 6683668 193.5875 130.8608  2.04801155423002
SKYNET 1A               
1 04250U 69101A   26061.56775256 -.00000118  00000+0  00000+0 0  9995
2 04250   0.1679  72.7699 0025351 170.4628  18.4253  1.00272062133448
NATO 2A                 
1 04353U 70021A   26061.56671256 -.00000089  00000+0  00000+0 0  9994
2 04353   0.6667 295.7857 0003077 324.7093 355.8342  1.00279560124692
INTELSAT 3-F7           
1 04376U 70032A   26061.51300311 -.00000359  00000+0  00000+0 0  9997
2 04376   2.1523  89.9553 0005014 222.5220 137.9939  1.00372226 46294
INTELSAT 3-F8           
1 04478U 70055A   26061.50621895 -.00000243  00000+0  00000+0 0  9999
2 04478   5.1989  70.5133 0316520 113.6329 101.9535  1.02264621121730
OPS 7329                
1 04510U 70069A   26061.17753095 -.00000301  00000+0  00000+0 0  9997
2 04510  10.5396 160.4586 1015431 105.3199 248.7202  1.00177757 23712
ATLAS AGENA D R/B       
1 04511U 70046B   26061.41284348 -.00000291  00000+0  00000+0 0  9998
2 04511   1.4222  86.0117 0031196 302.8114  57.7378  1.00404836 24487
OPS 5960 (DSP 1)        
1 04630U 70093A   26061.59513938 -.00000157  00000+0  00000+0 0  9992
2 04630  14.9741  38.1587 1365161 273.1762  82.2964  1.20217095242561
TITAN 3C TRANSTAGE R/B  
1 04632U 70093B   26061.62737951 -.00000157  00000+0  00000+0 0  9991
2 04632  14.9748  37.8391 1371169 273.2557 287.9167  1.20232059141123
ATLAS CENTAUR R/B       
1 04882U 71006B   26061.16931048  .00000085  00000+0  20400-2 0  9993
2 04882  28.0964 291.1099 7190680   0.4165   0.1177  2.20763493440832
NATO 2B                 
1 04902U 71009A   26061.56731922 -.00000107  00000+0  00000+0 0  9999
2 04902   1.4126 251.6183 0000963 241.2885 126.6853  1.00272339117574
TITAN 34B AGENA D R/B   
1 05054U 71021B   26061.04155590  .00001134  00000+0  20999-2 0  9998
2 05054  63.5250  31.5919 7298797 267.2484  15.5712  2.20085227 54757
OPS 9431 (DSCS 2-1)     
1 05587U 71095A   26061.56844590 -.00000146  00000+0  00000+0 0  9993
2 05587   1.8599 257.5388 0006239  13.9081 354.6711  1.00274735120952
OPS 9432 (DSCS 2-2)     
1 05588U 71095B   26061.75966808 -.00000257  00000+0  00000+0 0  9995
2 05588   1.8225 258.8835 0005019  64.3317 256.7705  1.00249503 46291
