[{"OBJECT_NAME":"TITAN 3C TRANSTAGE R/B","OBJECT_ID":"1969-013B","EPOCH":"2026-03-02T19:42:42.717600","MEAN_MOTION":0.97536017,"ECCENTRICITY":0.0165719,"INCLINATION":1.0298,"RA_OF_ASC_NODE":77.2984,"ARG_OF_PERICENTER":36.0736,"MEAN_ANOMALY":108.9112,"EPHEMERIS_TYPE":0,"CLASSIFICATION_TYPE":"U","NORAD_CAT_ID":3692,"ELEMENT_SET_NO":999,"REV_AT_EPOCH":4128,"BSTAR":0,"MEAN_MOTION_DOT":-2.39e-6,"MEAN_MOTION_DDOT":0},{"OBJECT_NAME":"TITAN 3C TRANSTAGE R/B","OBJECT_ID":"1969-046F","EPOCH":"2026-03-04T12:14:07.370592","MEAN_MOTION":0.46190181,"ECCENTRICITY":0.8032075,"INCLINATION":17.1418,"RA_OF_ASC_NODE":36.2871,"ARG_OF_PERICENTER":268.4802,"MEAN_ANOMALY":0.8357,"EPHEMERIS_TYPE":0,"CLASSIFICATION_TYPE":"U","NORAD_CAT_ID":3956,"ELEMENT_SET_NO":999,"REV_AT_EPOCH":2062,"BSTAR":0,"MEAN_MOTION_DOT":-6.72e-6,"MEAN_MOTION_DDOT":0},{"OBJECT_NAME":"ATS 5","OBJECT_ID":"1969-069A","EPOCH":"2026-03-02T17:34:38.647200","MEAN_MOTION":0.99486965,"ECCENTRICITY":0.0006224,"INCLINATION":0.2916,"RA_OF_ASC_NODE":214.602,"ARG_OF_PERICENTER":66.7611,"MEAN_ANOMALY":223.0466,"EPHEMERIS_TYPE":0,"CLASSIFICATION_TYPE":"U","NORAD_CAT_ID":4068,"ELEMENT_SET_NO":999,"REV_AT_EPOCH":4526,"BSTAR":0,"MEAN_MOTION_DOT":-6.0e-8,"MEAN_MOTION_DDOT":0},{"OBJECT_NAME":"ATLAS CENTAUR R/B","OBJECT_ID":"1969-069B","EPOCH":"2026-03-01T17:33:12.861504","MEAN_MOTION":2.04801155,"ECCENTRICITY":0.66836683,"INCLINATION":17.614,"RA_OF_ASC_NODE":311.9376,"ARG_OF_PERICENTER":193.5875,"MEAN_ANOMALY":130.8608,"EPHEMERIS_TYPE":0,"CLASSIFICATION_TYPE":"U","NORAD_CAT_ID":4069,"ELEMENT_SET_NO":999,"REV_AT_EPOCH":42300,"BSTAR":0,"MEAN_MOTION_DOT":-4.0e-6,"MEAN_MOTION_DDOT":0},{"OBJECT_NAME":"SKYNET 1A","OBJECT_ID":"1969-101A","EPOCH":"2026-03-02T13:37:33.821184","MEAN_MOTION":1.00272062,"ECCENTRICITY":0.0025351,"INCLINATION":0.1679,"RA_OF_ASC_NODE":72.7699,"ARG_OF_PERICENTER":170.4628,"MEAN_ANOMALY":18.4253,"EPHEMERIS_TYPE":0,"CLASSIFICATION_TYPE":"U","NORAD_CAT_ID":4250,"ELEMENT_SET_NO":999,"REV_AT_EPOCH":13344,"BSTAR":0,"MEAN_MOTION_DOT":-1.18e-6,"MEAN_MOTION_DDOT":0},{"OBJECT_NAME":"NATO 2A","OBJECT_ID":"1970-021A","EPOCH":"2026-03-02T13:36:03.965184","MEAN_MOTION":1.0027956,"ECCENTRICITY":0.0003077,"INCLINATION":0.6667,"RA_OF_ASC_NODE":295.7857,"ARG_OF_PERICENTER":324.7093,"MEAN_ANOMALY":355.8342,"EPHEMERIS_TYPE":0,"CLASSIFICATION_TYPE":"U","NORAD_CAT_ID":4353,"ELEMENT_SET_NO":999,"REV_AT_EPOCH":12469,"BSTAR":0,"MEAN_MOTION_DOT":-8.9e-7,"MEAN_MOTION_DDOT":0},{"OBJECT_NAME":"INTELSAT 3-F7","OBJECT_ID":"1970-032A","EPOCH":"2026-03-02T12:18:43.468704","MEAN_MOTION":1.00372226,"ECCENTRICITY":0.0005014,"INCLINATION":2.1523,"RA_OF_ASC_NODE":89.9553,"ARG_OF_PERICENTER":222.522,"MEAN_ANOMALY":137.9939,"EPHEMERIS_TYPE":0,"CLASSIFICATION_TYPE":"U","NORAD_CAT_ID":4376,"ELEMENT_SET_NO":999,"REV_AT_EPOCH":4629,"BSTAR":0,"MEAN_MOTION_DOT":-3.59e-6,"MEAN_MOTION_DDOT":0},{"OBJECT_NAME":"INTELSAT 3-F8","OBJECT_ID":"1970-055A","EPOCH":"2026-03-02T12:08:57.317280","MEAN_MOTION":1.02264621,"ECCENTRICITY":0.031652,"INCLINATION":5.1989,"RA_OF_ASC_NODE":70.5133,"ARG_OF_PERICENTER":113.6329,"MEAN_ANOMALY":101.9535,"EPHEMERIS_TYPE":0,"CLASSIFICATION_TYPE":"U","NORAD_CAT_ID":4478,"ELEMENT_SET_NO":999,"REV_AT_EPOCH":12173,"BSTAR":0,"MEAN_MOTION_DOT":-2.43e-6,"MEAN_MOTION_DDOT":0},{"OBJECT_NAME":"OPS 7329","OBJECT_ID":"1970-069A","EPOCH":"2026-03-02T04:15:38.674080","MEAN_MOTION":1.00177757,"ECCENTRICITY":0.1015431,"INCLINATION":10.5396,"RA_OF_ASC_NODE":160.4586,"ARG_OF_PERICENTER":105.3199,"MEAN_ANOMALY":248.7202,"EPHEMERIS_TYPE":0,"CLASSIFICATION_TYPE":"U","NORAD_CAT_ID":4510,"ELEMENT_SET_NO":999,"REV_AT_EPOCH":2371,"BSTAR":0,"MEAN_MOTION_DOT":-3.01e-6,"MEAN_MOTION_DDOT":0},{"OBJECT_NAME":"ATLAS AGENA D R/B","OBJECT_ID":"1970-046B","EPOCH":"2026-03-02T09:54:29.676672","MEAN_MOTION":1.00404836,"ECCENTRICITY":0.0031196,"INCLINATION":1.4222,"RA_OF_ASC_NODE":86.0117,"ARG_OF_PERICENTER":302.8114,"MEAN_ANOMALY":57.7378,"EPHEMERIS_TYPE":0,"CLASSIFICATION_TYPE":"U","NORAD_CAT_ID":4511,"ELEMENT_SET_NO":999,"REV_AT_EPOCH":2448,"BSTAR":0,"MEAN_MOTION_DOT":-2.91e-6,"MEAN_MOTION_DDOT":0},{"OBJECT_NAME":"OPS 5960 (DSP 1)","OBJECT_ID":"1970-093A","EPOCH":"2026-03-02T14:17:00.042432","MEAN_MOTION":1.20217095,"ECCENTRICITY":0.1365161,"INCLINATION":14.9741,"RA_OF_ASC_NODE":38.1587,"ARG_OF_PERICENTER":273.1762,"MEAN_ANOMALY":82.2964,"EPHEMERIS_TYPE":0,"CLASSIFICATION_TYPE":"U","NORAD_CAT_ID":4630,"ELEMENT_SET_NO":999,"REV_AT_EPOCH":24256,"BSTAR":0,"MEAN_MOTION_DOT":-1.57e-6,"MEAN_MOTION_DDOT":0},{"OBJECT_NAME":"TITAN 3C TRANSTAGE R/B","OBJECT_ID":"1970-093B","EPOCH":"2026-03-02T15:03:25.589664","MEAN_MOTION":1.20232059,"ECCENTRICITY":0.1371169,"INCLINATION":14.9748,"RA_OF_ASC_NODE":37.8391,"ARG_OF_PERICENTER":273.2557,"MEAN_ANOMALY":287.9167,"EPHEMERIS_TYPE":0,"CLASSIFICATION_TYPE":"U","NORAD_CAT_ID":4632,"ELEMENT_SET_NO":999,"REV_AT_EPOCH":14112,"BSTAR":0,"MEAN_MOTION_DOT":-1.57e-6,"MEAN_MOTION_DDOT":0},{"OBJECT_NAME":"ATLAS CENTAUR R/B","OBJECT_ID":"1971-006B","EPOCH":"2026-03-02T04:03:48.425472","MEAN_MOTION":2.20763493,"ECCENTRICITY":0.71906807,"INCLINATION":28.0964,"RA_OF_ASC_NODE":291.1099,"ARG_OF_PERICENTER":0.4165,"MEAN_ANOMALY":0.1177,"EPHEMERIS_TYPE":0,"CLASSIFICATION_TYPE":"U","NORAD_CAT_ID":4882,"ELEMENT_SET_NO":999,"REV_AT_EPOCH":44083,"BSTAR":0.0020400097,"MEAN_MOTION_DOT":8.5e-7,"MEAN_MOTION_DDOT":0},{"OBJECT_NAME":"NATO 2B","OBJECT_ID":"1971-009A","EPOCH":"2026-03-02T13:36:56.380608","MEAN_MOTION":1.00272339,"ECCENTRICITY":9.63e-5,"INCLINATION":1.4126,"RA_OF_ASC_NODE":251.6183,"ARG_OF_PERICENTER":241.2885,"MEAN_ANOMALY":126.6853,"EPHEMERIS_TYPE":0,"CLASSIFICATION_TYPE":"U","NORAD_CAT_ID":4902,"ELEMENT_SET_NO":999,"REV_AT_EPOCH":11757,"BSTAR":0,"MEAN_MOTION_DOT":-1.07e-6,"MEAN_MOTION_DDOT":0},{"OBJECT_NAME":"TITAN 34B AGENA D R/B","OBJECT_ID":"1971-021B","EPOCH":"2026-03-02T00:59:50.429760","MEAN_MOTION":2.20085227,"ECCENTRICITY":0.72987975,"INCLINATION":63.525,"RA_OF_ASC_NODE":31.5919,"ARG_OF_PERICENTER":267.2484,"MEAN_ANOMALY":15.5712,"EPHEMERIS_TYPE":0,"CLASSIFICATION_TYPE":"U","NORAD_CAT_ID":5054,"ELEMENT_SET_NO":999,"REV_AT_EPOCH":5475,"BSTAR":0.0020998578,"MEAN_MOTION_DOT":1.134e-5,"MEAN_MOTION_DDOT":0},{"OBJECT_NAME":"OPS 9431 (DSCS 2-1)","OBJECT_ID":"1971-095A","EPOCH":"2026-03-02T13:38:33.725760","MEAN_MOTION":1.00274735,"ECCENTRICITY":0.0006239,"INCLINATION":1.8599,"RA_OF_ASC_NODE":257.5388,"ARG_OF_PERICENTER":13.9081,"MEAN_ANOMALY":354.6711,"EPHEMERIS_TYPE":0,"CLASSIFICATION_TYPE":"U","NORAD_CAT_ID":5587,"ELEMENT_SET_NO":999,"REV_AT_EPOCH":12095,"BSTAR":0,"MEAN_MOTION_DOT":-1.46e-6,"MEAN_MOTION_DDOT":0},{"OBJECT_NAME":"OPS 9432 (DSCS 2-2)","OBJECT_ID":"1971-095B","EPOCH":"2026-03-02T18:13:55.322112","MEAN_MOTION":1.00249503,"ECCENTRICITY":0.0005019,"INCLINATION":1.8225,"RA_OF_ASC_NODE":258.8835,"ARG_OF_PERICENTER":64.3317,"MEAN_ANOMALY":256.7705,"EPHEMERIS_TYPE":0,"CLASSIFICATION_TYPE":"U","NORAD_CAT_ID":5588,"ELEMENT_SET_NO":999,"REV_AT_EPOCH":4629,"BSTAR":0,"MEAN_MOTION_DOT":-2.57e-6,"MEAN_MOTION_DDOT":0}]
